{
  "type": "FeatureCollection",
  "features": [
    {
      "type": "Feature",
      "properties": {"slug": "santa-cruz", "name": "Santa Cruz"},
      "geometry": {
        "type": "Polygon",
        "coordinates": [[[-64.5, -20.6], [-57.3, -20.6], [-57.3, -13.3], [-64.5, -13.3], [-64.5, -20.6]]]
      }
    },
    {
      "type": "Feature",
      "properties": {"slug": "beni", "name": "Beni"},
      "geometry": {
        "type": "Polygon",
        "coordinates": [[[-67.7, -16.6], [-62.6, -16.6], [-62.6, -10.2], [-67.7, -10.2], [-67.7, -16.6]]]
      }
    },
    {
      "type": "Feature",
      "properties": {"slug": "pando", "name": "Pando"},
      "geometry": {
        "type": "Polygon",
        "coordinates": [[[-69.7, -12.6], [-65.1, -12.6], [-65.1, -9.6], [-69.7, -9.6], [-69.7, -12.6]]]
      }
    }
  ]
}
